0 SL-16 DEB
1 22332U 92093V   13282.10860152  .00013356  00000-0  32393-2 0  7004
2 22332 070.5561 254.5083 0031284 102.8287 021.1879 14.52729619 79674
0 SL-16 DEB
1 22332U 92093V   13283.75003564  .00012893  00000-0  31256-2 0  7015
2 22332 070.5555 250.7606 0031455 099.8750 326.1408 14.52760531 79917
0 SL-16 DEB
1 22332U 92093V   13287.74497125  .00014041  00000-0  33963-2 0  7034
2 22332 070.5552 241.6372 0031772 093.1985 340.4899 14.52833373 80495
0 SL-16 DEB
1 22332U 92093V   13290.02135646  .00013862  00000-0  33489-2 0  7040
2 22332 070.5560 236.4377 0031982 089.4098 007.0033 14.52888716 80821
0 SL-16 DEB
1 22332U 92093V   13292.22852890  .00012141  00000-0  29323-2 0  7053
2 22332 070.5563 231.3963 0032203 085.7897 031.8628 14.52940644 81142
0 SL-16 DEB
1 22332U 92093V   13294.62642461  .00015497  00000-0  37323-2 0  7067
2 22332 070.5560 225.9193 0032495 081.9032 334.7309 14.52992294 81492
